{
  "norad_id": 67384,
  "name": "CAPELLA-19 (ACADIA-9)",
  "history": [
    {
      "epoch": "2026-03-28T05:29:04.350912Z",
      "apogee_km": 609.3220725380343,
      "perigee_km": 607.2630320203871,
      "latitude_deg": 3.443500611690964e-05,
      "longitude_deg": 179.16008871080095,
      "height_km": 611.3385451036496,
      "semi_major_axis_km": 6986.429552279211,
      "eccentricity": 0.00014736,
      "inclination_deg": 97.8005,
      "raan_deg": 87.0802,
      "arg_perigee_deg": 90.8223,
      "mean_anomaly_deg": 269.3162,
      "mean_motion_rev_day": 14.86687999
    }
  ]
}