{"fetched_at":"2026-03-29T02:12:04Z","count":15717,"tles":[{"name":"CAPELLA-19 (ACADIA-9)","line1":"1 67384U 26004X   26087.22852258  .00005881  00000+0  66748-3 0  9992","line2":"2 67384  97.8005  87.0802 0001473  90.8223 269.3162 14.86687999 11247","category":"Other"}]}